web-scraper-order,web-scraper-start-url,riverSegment,riverName,riverMile,bank,lat,long,season,camping,contact,phone,website,restrooms-src,potableWater-src,marineDumpStation-src,dayUseOnly-src,picnicShelters-src,boatRamp-src,handCarried-src,marina-src,adaAccess-src
1639845858-13,http://www.ndwt.org/ndwt/explore/site.asp?site=201,,,,,,,,,USACE,,,1,0,0,0,0,0,0,0,0
1639846015-81,http://www.ndwt.org/ndwt/explore/site.asp?site=130,Lake Umatilla,Columbia,234,OR,45.695,-120.37,,,US Army Corps of Engineers,,,0,0,0,0,0,0,0,0,0
1639846259-189,http://www.ndwt.org/ndwt/explore/site.asp?site=20,,Clearwater,,ID,,,,,CMC/BLM,,,0,0,0,0,0,0,0,0,0
1639845856-12,http://www.ndwt.org/ndwt/explore/site.asp?site=202,Clearwater,Clearwater,34,South,46.49144,116.45002,year round,None,BLM Cottonwood Field Office,(208)962-3425,http://tinyurl.com/2dhmo9,1,0,0,1,0,1,0,0,0
1639846035-90,http://www.ndwt.org/ndwt/explore/site.asp?site=121,Lake Umatilla,Columbia,278,WA,45.93342,-119.59269,,none,The Dalles Natural Resource Management Office,,,0,0,0,1,0,1,1,0,0
1639845951-52,http://www.ndwt.org/ndwt/explore/site.asp?site=159,Lake Bonneville,Columbia,170,S- OR,45.711983,-121.506617,"year round, fuel for vessels April 16-Sept.30",None,Port of Hood River,541-386-1645,http://tinyurl.com/24vmnd,1,0,1,1,0,1,0,1,1
1639845940-47,http://www.ndwt.org/ndwt/explore/site.asp?site=164,Lake Bonneville,Columbia,169,OR,45.7166,-121.522583,year round,None,Port of Hood River,541-386-1645,http://tinyurl.com/24mqav,1,0,0,1,0,0,1,0,0
1639845880-23,http://www.ndwt.org/ndwt/explore/site.asp?site=191,,Clearwater,151,,,,,,Skamania Country Parks,,,0,0,0,0,0,1,0,0,0
1639845957-55,http://www.ndwt.org/ndwt/explore/site.asp?site=156,Lake Bonneville,Columbia,172,WA,45.70905,-121.4572,year round,None,Port of Klickitat,509-493-1655,http://tinyurl.com/27zyt6,1,0,0,1,0,0,0,0,0
1639846134-135,http://www.ndwt.org/ndwt/explore/site.asp?site=76,Lake Sacajawea,Snake,25,S -WA,46.368257,-118.687991,Year round,undeveloped,Ice Harbor Lock and Dam,,,0,0,0,1,0,0,0,0,0
1639846165-149,http://www.ndwt.org/ndwt/explore/site.asp?site=62,Lake West,Snake,70.29,,,,,,,,,0,0,0,0,0,0,0,0,0
1639845931-43,http://www.ndwt.org/ndwt/explore/site.asp?site=168,Lake Bonneville,Columbia,155,N-WA,45.710733,-121.778467,Camping April 1 - October 31,Yes,Skamania Parks and Recreation,509-427-3980,http://www.chvs.org/home_valley.html,1,0,0,1,0,0,1,0,1
1639846094-117,http://www.ndwt.org/ndwt/explore/site.asp?site=94,Lake Wallula,Columbia,335,WA,46.245979,-119.239763,,undeveloped,,,,0,0,0,1,0,0,0,0,0
1639845911-34,http://www.ndwt.org/ndwt/explore/site.asp?site=177,Lower Columbia River Water Trail,Columbia,144,WA,45.633767,-121.96525,year round,undeveloped,US Army Corps of Engineers,541-374-4556,,0,0,0,1,0,1,0,0,0
1639846099-119,http://www.ndwt.org/ndwt/explore/site.asp?site=92,Lake Wallula,Columbia,336,WA,46.261313,-119.241768,,,,,,0,0,0,0,0,0,0,0,0
1639845948-51,http://www.ndwt.org/ndwt/explore/site.asp?site=160,Lake Bonneville,Columbia,170,OR,45.710833,-121.497883,,,Privately Owned,541-386-2200,,0,0,0,0,0,0,0,0,0
1639845998-73,http://www.ndwt.org/ndwt/explore/site.asp?site=138,Lake Celilo,Columbia,214,OR,45.711,-120.71,,Yes,Army Corps of Engineers,,,1,0,0,1,0,0,1,0,0
1639845955-54,http://www.ndwt.org/ndwt/explore/site.asp?site=157,Lake Bonneville,Columbia,172,WA,45.70465,-121.455167,year round,undeveloped,Port of Klickitat,509-493-1655,,1,0,0,1,0,0,0,0,0
1639845834-2,http://www.ndwt.org/ndwt/explore/site.asp?site=212,Lake Wallula,Columbia,337.5,West,46.274805,-119.271569,year round,None,City of Richland Parks and Recreation Department,509-942-7529,http://tinyurl.com/3ewy2k,1,1,0,1,1,1,1,0,1
1639846046-95,http://www.ndwt.org/ndwt/explore/site.asp?site=116,Lake Umatilla,Columbia,289,OR,45.914945,-119.350084,year round,None,City of Umatilla,(541) 922-3226,http://www.umatilla-city.org/facts.html,1,0,0,0,0,1,1,0,0
1639846002-75,http://www.ndwt.org/ndwt/explore/site.asp?site=136,Lake Celilo,Columbia,215.9,,,,,,,,,0,0,0,0,0,0,0,0,0
1639846139-137,http://www.ndwt.org/ndwt/explore/site.asp?site=74,Lake Sacajawea,Snake,39,N - WA,46.533268,-118.581204,Open Year Round. Restrooms/Water provided April 1 - Sept 7,Yes,Ice Harbor Lock and Dam,"(	509)-547-2048",http://tinyurl.com/2cvgfb,1,1,0,1,1,1,1,0,1
1639846011-79,http://www.ndwt.org/ndwt/explore/site.asp?site=132,Lake Umatilla,Columbia,219,S- OR,45.728,-120.65,,Yes,The Dalles Natural Resource Management Office,(541)506-7819,http://tinyurl.com/22j7eb,1,0,0,1,0,1,0,0,0
1639846083-112,http://www.ndwt.org/ndwt/explore/site.asp?site=99,Lake Wallula,Columbia,329,WA,46.217682,-119.108862,,,,,,0,0,0,0,0,0,0,0,0
1639846039-92,http://www.ndwt.org/ndwt/explore/site.asp?site=119,Lake Umatilla,Columbia,280,OR,45.91,-119.55,year round,Yes,The Dalles Natural Resource Management Office,541-506-7819,,1,0,0,1,0,1,1,0,0
1639845893-28,http://www.ndwt.org/ndwt/explore/site.asp?site=185,,Clearwater,6,North,46 25.326,-116 55.555,,,Idaho Fish and Game,,http://tinyurl.com/28x8kh,0,0,0,1,0,1,0,0,0
1639846257-188,http://www.ndwt.org/ndwt/explore/site.asp?site=21,Clearwater,Clearwater,21,South,46.51208,-116.68378,,None,Idaho Fish & Game,(208) 334-3700,,1,0,0,0,0,1,1,0,0
1639846154-144,http://www.ndwt.org/ndwt/explore/site.asp?site=67,Lake West,Snake,59,S -WA,46.585647,-118.220225,Year round Closed on Tuesdays for both Summer and Winter hours..,Yes,Clarkston Natural Resources Office,509-751-0240,http://tinyurl.com/284x54,1,0,1,1,0,1,1,1,1
1639846068-105,http://www.ndwt.org/ndwt/explore/site.asp?site=106,Lake Wallula,Columbia,309,,46,-118.986531,,,,,,0,0,0,0,0,0,0,0,0
1639845874-20,http://www.ndwt.org/ndwt/explore/site.asp?site=194,,Clearwater,0.75,,,,,,,,,0,0,0,1,0,0,0,0,0
1639846028-87,http://www.ndwt.org/ndwt/explore/site.asp?site=124,Lake Umatilla,Columbia,262,N-WA,45.856,-119.85,March 15th to October 15th,Yes,Benton County,,http://www.crowbutte.com/,1,0,0,1,1,1,0,0,1
1639846050-97,http://www.ndwt.org/ndwt/explore/site.asp?site=114,Lake Umatilla,Columbia,291.9,,,,,,,,,0,0,0,0,0,0,0,0,0
1639846090-115,http://www.ndwt.org/ndwt/explore/site.asp?site=96,Lake Wallula,Columbia,334,WA,46.238445,-119.226897,year round,None,City of Richland Parks Department,(509) 942-7529,http://tinyurl.com/3pg5fx,1,0,0,1,1,1,1,0,1
1639846088-114,http://www.ndwt.org/ndwt/explore/site.asp?site=97,Lake Wallula,Columbia,330,WA,46.22209,-119.140141,Year Round,None,City of Kennewick,(509)-585-4529,http://tinyurl.com/2xqny3,1,0,0,0,0,1,1,1,0
1639846245-183,http://www.ndwt.org/ndwt/explore/site.asp?site=26,,Clearwater,,ID,46.450916,-116.818144,,,,,,0,0,0,0,0,0,0,0,0
1639846252-186,http://www.ndwt.org/ndwt/explore/site.asp?site=23,,Clearwater,,S-ID,,,,,Nez Perce National Historic Park,,,0,0,0,0,0,0,0,0,0
1639846026-86,http://www.ndwt.org/ndwt/explore/site.asp?site=125,Lake Umatilla,Columbia,259,WA,45.835,-119.29,,,,,,0,0,0,0,0,0,0,0,0
1639846059-101,http://www.ndwt.org/ndwt/explore/site.asp?site=110,Lake Wallula,Columbia,296,OR,45.93117,-119.269871,Gates closed at sunset between May 1st and September 30th.,None,McNary Lock and Dam,,http://tinyurl.com/yptolj,1,1,0,1,1,0,1,0,1
1639845845-7,http://www.ndwt.org/ndwt/explore/site.asp?site=207,,Clearwater,18,South,46.49602,116.72854,,Tent and RV,Idaho Fish & Game,(208) 476-4541,http://tinyurl.com/286spz,1,1,0,0,0,0,1,0,0
1639846017-82,http://www.ndwt.org/ndwt/explore/site.asp?site=129,Lake Umatilla,Columbia,242,WA,45.741,-120.22,,Yes,The Dalles Natural Resource Management Office,(541)-386-9225,http://roosevelt.mediaforte.com/,1,0,0,1,0,1,1,0,0
1639846248-184,http://www.ndwt.org/ndwt/explore/site.asp?site=25,,Clearwater,,ID,,,,,ID Fish & Game (BLM/CMC),(208)-799-5090,,1,0,0,1,0,1,0,0,0
1639845928-42,http://www.ndwt.org/ndwt/explore/site.asp?site=169,Lake Bonneville,Columbia,150,WA,45.692167,-121.882367,year round,undeveloped,Port of Skamania,509-427-5484,,1,0,0,1,0,0,0,0,1
1639845933-44,http://www.ndwt.org/ndwt/explore/site.asp?site=167,Lake Bonneville,Columbia,160,OR,45.69925,-121.66785,Day use park and windsurfing area open year round. Camping Mid-March - October.,Tent and RV sites,Oregon State Parks,503-695-2261 x 222,http://www.oregonstateparks.org/park_171.php,1,1,0,1,1,0,0,0,1
1639845973-62,http://www.ndwt.org/ndwt/explore/site.asp?site=149,Lake Bonneville,Columbia,190,OR,45.626133,-121.197767,year round,undeveloped,Port of The Dalles,541-298-4148,,1,0,0,1,0,0,0,0,1
1639846234-180,http://www.ndwt.org/ndwt/explore/site.asp?site=31,,Clearwater,,ID,,,,,Idaho Trans. Dept.,,,0,0,0,0,0,0,0,0,0
1639846297-206,http://www.ndwt.org/ndwt/explore/site.asp?site=3,Clearwater,Clearwater,35,,,,,,Nez Perce Tribe,,,0,0,0,1,0,1,0,0,0
1639846112-125,http://www.ndwt.org/ndwt/explore/site.asp?site=86,Lake Wallula,Snake,9.6,,,,,,,,,0,0,0,0,0,0,0,0,0
1639846163-148,http://www.ndwt.org/ndwt/explore/site.asp?site=63,Lake West,Snake,67,N -WA,46.576515,-118.091199,Year round,Yes,Clarkston Natural Resources Office,509-751-0240,http://tinyurl.com/2hv54s,1,0,0,1,0,0,1,0,0
1639845847-8,http://www.ndwt.org/ndwt/explore/site.asp?site=206,Clearwater,Clearwater,5,South,46.52504,116.62625,year round,None,BLM Cottonwood Field Office,(503) 588-2701,,1,0,0,1,0,0,0,0,0
1639845924-40,http://www.ndwt.org/ndwt/explore/site.asp?site=171,Lake Bonneville,Columbia,150,WA,45.694067,-121.878017,year round,None,Port of Skamania,509-427-5484,http://tinyurl.com/2d9js8,1,0,0,1,0,1,1,0,1
1639846202-166,http://www.ndwt.org/ndwt/explore/site.asp?site=45,Lower Granite Lake,Snake,111,N - WA,46.6241,-117.37525,year round,Yes,Clarkston Natural Resources Office,"(	509) 751-0240",http://tinyurl.com/ysektr,1,0,0,0,0,1,0,0,1
1639846218-173,http://www.ndwt.org/ndwt/explore/site.asp?site=38,Lower Granite Lake,Snake,140,W -WA,46.41935,-117.036083,Year round,None,Clarkston Natural Resources Office,(509) 751-0240,http://tinyurl.com/yu9rmu,1,1,0,1,0,1,0,0,1
1639846121-129,http://www.ndwt.org/ndwt/explore/site.asp?site=82,Lake Sacajawea,Snake,11,S -WA,46.260205,-118.846432,"day-use open year round, Fee campground May 1 to Oct 31, 6a.m. to 10p.m.",Yes,Ice Harbor Lock and Dam,509-547-2048,http://tinyurl.com/yplt56,1,0,0,1,0,1,1,1,0
1639846209-169,http://www.ndwt.org/ndwt/explore/site.asp?site=42,Lower Granite Lake,Snake,132,S -WA,46.41609,-117.195539,Opening and closing dates will depend upon use and weather.,Yes,Clarkston Natural Resources Office,509-758-9580 (Summer Only),http://tinyurl.com/27b2ev,1,1,1,0,0,1,0,0,1
1639846207-168,http://www.ndwt.org/ndwt/explore/site.asp?site=43,Lower Granite Lake,Snake,126,N - ID,46.4724,-117.23495,Year round,Yes,Clarkston Natural Resources Office,(505)-751-0240,http://tinyurl.com/2f8de3,1,0,0,0,0,1,0,0,1
1639846125-131,http://www.ndwt.org/ndwt/explore/site.asp?site=80,Lake Sacajawea,Snake,15,N - WA,46.29251,-118.809013,Year round,None,Ice Harbor Lock and Dam,"(	509)-547-2048",http://tinyurl.com/2yvwrq,0,0,0,0,0,1,0,0,0
1639846070-106,http://www.ndwt.org/ndwt/explore/site.asp?site=105,Lake Wallula,Columbia,312,WA,46.025706,-118.937465,year round,None,McNary Lock & Dam,(509)-547-4946,http://tinyurl.com/yuy23z,1,0,0,1,0,1,1,0,0
1639845887-25,http://www.ndwt.org/ndwt/explore/site.asp?site=188,Lower Granite Lake,Snake,113,,46.6037,-117.357317,,undeveloped,,,,0,0,0,1,0,0,0,0,0
1639846145-140,http://www.ndwt.org/ndwt/explore/site.asp?site=71,Lake West,Snake,41.6,both - WA,46.560671,-118.537673,Year round,undeveloped,Ice Harbor Lock and Dam,,,1,0,0,1,0,0,0,0,0
1639846136-136,http://www.ndwt.org/ndwt/explore/site.asp?site=75,Lake Sacajawea,Snake,30,S -WA,46.437588,-118.63432,Year round,Yes,Ice Harbor Lock and Dam,509-547-2048,http://tinyurl.com/2g57yo,1,0,0,1,0,1,1,0,1
1639845900-30,http://www.ndwt.org/ndwt/explore/site.asp?site=182,Lower Granite Lake,Snake,113,North,46 36.222,117 21.439,,undeveloped,,,,0,0,0,1,0,0,0,0,0
1639846072-107,http://www.ndwt.org/ndwt/explore/site.asp?site=104,Lake Wallula,Columbia,314,WA,46.100058,-118.918884,,,,,,0,0,0,0,0,0,0,0,0
1639846103-121,http://www.ndwt.org/ndwt/explore/site.asp?site=90,Lake Wallula,Snake,1,N - WA / E (on Columbia),46.201353,-119.03771,"Year round launch, park closes Oct to May",Yes,Ice Harbor Lock and Dam,(509)-545-2361,http://tinyurl.com/24v8xa,1,0,0,1,0,1,1,0,1
1639845920-38,http://www.ndwt.org/ndwt/explore/site.asp?site=173,Lake Bonneville,Columbia,150,OR,45.672183,-121.8912,year round,Tent and RV sites,Port of Cascade Locks,541-374-8427,http://www.portofcascadelocks.org/marinepark.htm,1,0,1,1,0,1,1,1,1
1639846275-196,http://www.ndwt.org/ndwt/explore/site.asp?site=13,Clearwater,Clearwater,2,N - ID,46.42056,-116.99883,Year round (Baseball & Softball Diamonds May 23- July)/Little League Baseball,None,Clarkston Natural Resources Office,208-746-2313,http://www.cityoflewiston.org/parkrec/index.htm,1,0,0,1,0,0,1,0,1
1639846055-99,http://www.ndwt.org/ndwt/explore/site.asp?site=112,Lake Wallula,Columbia,292,WA,45.943539,-119.299175,,,McNary Lock & Dam,,http://tinyurl.com/4xg488,0,0,0,0,0,0,0,0,0
1639845904-32,http://www.ndwt.org/ndwt/explore/site.asp?site=180,Lake Sacajawea,Snake,,,,,,,,,,0,0,0,0,0,0,0,0,0
1639846156-145,http://www.ndwt.org/ndwt/explore/site.asp?site=66,Lake West,Snake,59.5,N -WA,46.593254,-118.218603,Memorial Day weekend through September,Yes,Clarkston Natural Resources Office,(509) 399-8020,http://tinyurl.com/yojob8,1,0,0,1,0,1,0,1,1
1639846053-98,http://www.ndwt.org/ndwt/explore/site.asp?site=113,Lake Wallula,Columbia,292,South,45.939986,-119.30102,year round,None,McNary Lock and Dam,(541)-922-2268,,0,0,0,1,0,1,1,0,0
1639846074-108,http://www.ndwt.org/ndwt/explore/site.asp?site=103,Lake Wallula,Columbia,317,N- WA,46.103134,-118.972277,year round,undeveloped,Benton County Parks,,,0,0,0,0,0,0,0,0,0
1639846079-110,http://www.ndwt.org/ndwt/explore/site.asp?site=101,Lake Wallula,Columbia,325,WA,46.189888,-119.050301,year round,None,Benton County Facilities and Parks,"(	509)-783-3118",http://tinyurl.com/29efgv,1,1,0,1,0,1,1,0,0
1639846183-157,http://www.ndwt.org/ndwt/explore/site.asp?site=54,Lake Bryan,Snake,93,S -WA,46.700363,-117.661417,,undeveloped,Army Corps of Engineers,,,0,0,0,0,0,0,0,0,0
1639846169-151,http://www.ndwt.org/ndwt/explore/site.asp?site=60,Lake Bryan,Snake,70.31,,,,,,,,,0,0,0,0,0,0,0,0,0
1639845953-53,http://www.ndwt.org/ndwt/explore/site.asp?site=158,Lake Bonneville,Columbia,169,OR,45.715033,-121.5117,"year round , restrooms open and fees collected April 16-Sept. 30",undeveloped,Port of Hood River,541-386-1645,,1,0,0,1,0,0,0,1,1
1639845978-64,http://www.ndwt.org/ndwt/explore/site.asp?site=147,,Columbia,192,,,,,,,,,0,0,0,0,0,0,0,0,0
1639846161-147,http://www.ndwt.org/ndwt/explore/site.asp?site=64,Lake West,Snake,66,S -WA,46.561252,-118.100921,Year round,None,Clarkston Natural Resources Office,509-751-0240,http://tinyurl.com/2789aj,1,0,0,1,0,1,1,0,0
1639845960-56,http://www.ndwt.org/ndwt/explore/site.asp?site=155,Lake Bonneville,Columbia,174,WA,45.722117,-121.570083,year round,None,Privately Owned,,http://tinyurl.com/2hd3vt,1,0,0,1,0,0,1,0,0
1639845993-71,http://www.ndwt.org/ndwt/explore/site.asp?site=140,Lake Celilo,Columbia,210,WA,45.7,-120.79,,Tent and RV,Peach Beach RV Park,509-773-4698,http://tinyurl.com/yqrneo,1,0,0,0,0,0,1,0,0
1639846022-84,http://www.ndwt.org/ndwt/explore/site.asp?site=127,Lake Umatilla,Columbia,243,OR,45.72,-120.2,,,,,,1,0,0,1,0,0,0,0,0
1639846222-175,http://www.ndwt.org/ndwt/explore/site.asp?site=36,Lower Granite Lake,Snake,142,West,46.386579,-117.046945,Year round,None,Clarkston Resources Office,,http://tinyurl.com/3onngf,1,0,0,0,1,1,1,0,0
1639845861-14,http://www.ndwt.org/ndwt/explore/site.asp?site=200,Lake Umatilla,,,,,,,,Amry corps of engineers,,,0,0,0,0,0,1,0,0,0
1639846196-163,http://www.ndwt.org/ndwt/explore/site.asp?site=48,Lower Granite Lake,Snake,107.4,,46.658067,-117.42125,,,,,,0,0,0,0,0,0,0,0,0
1639846290-203,http://www.ndwt.org/ndwt/explore/site.asp?site=6,Clearwater,Clearwater,2.5,ID,,,"Year round; Access may be partially limited in winter, however, due to inclement weather conditions",None,Dworshak Dam and Reservoir,208-476-1255,,1,0,0,1,0,1,1,0,1
1639845946-50,http://www.ndwt.org/ndwt/explore/site.asp?site=161,Lake Bonneville,Columbia,170,OR,45.704333,-121.477333,year round,None,Oregon State Parks,503-695-2261 x222,http://www.oregonstateparks.org/park_157.php,1,0,0,1,0,0,0,0,0
1639846295-205,http://www.ndwt.org/ndwt/explore/site.asp?site=4,Clearwater,Clearwater,34,ID,,,,,BLM/CMC,,,1,0,0,1,0,1,1,0,0
1639846117-127,http://www.ndwt.org/ndwt/explore/site.asp?site=84,Lake Sacajawea,Snake,9.8,,46.252776,-118.876926,,,,,,0,0,0,0,0,0,0,0,0
1639846229-178,http://www.ndwt.org/ndwt/explore/site.asp?site=33,Lower Granite Lake,Snake,146,W -WA,46.3389,-117.051283,Year round,undeveloped,City of Asotin,509-243-4412,,1,0,0,1,0,0,1,0,1
1639846224-176,http://www.ndwt.org/ndwt/explore/site.asp?site=35,Lower Granite Lake,Snake,142,WA,46.421968,-117.039147,,,,,,0,0,0,0,0,0,0,0,0
1639845987-68,http://www.ndwt.org/ndwt/explore/site.asp?site=143,Lake Celilo,Columbia,202,OR,45.65,-120.96,year round,None,The Dalles Natural Resource Management Office,,,1,0,0,1,0,1,1,0,0
1639845863-15,http://www.ndwt.org/ndwt/explore/site.asp?site=199,Lake Umatilla,,,,,,,,Army Corps of engineers,,,0,0,0,0,0,0,0,0,0
1639846057-100,http://www.ndwt.org/ndwt/explore/site.asp?site=111,Lake Wallula,Columbia,292.1,,,,,,,,,0,0,0,0,0,0,0,0,0
1639846174-153,http://www.ndwt.org/ndwt/explore/site.asp?site=58,Lake Bryan,Snake,77.5,,46.592331,-117.896939,,,Corps of Engineers,(505)-751-0240,,0,0,0,0,0,0,0,0,0
1639845962-57,http://www.ndwt.org/ndwt/explore/site.asp?site=154,Lake Bonneville,Columbia,174,OR,45.682,-121.404367,year round,None,City of Mosier,,http://tinyurl.com/yr4c6d,1,0,0,1,0,0,0,0,0
1639846279-198,http://www.ndwt.org/ndwt/explore/site.asp?site=11,Clearwater,Clearwater,3.5,N - ID,46 25.481,116 59.014,Year round,None,Clarkston Resources Office,,http://tinyurl.com/4dtvl6,1,0,0,1,0,1,1,0,1
1639846101-120,http://www.ndwt.org/ndwt/explore/site.asp?site=91,Lake Wallula,Snake,,,,,,,,,,0,0,0,0,0,0,0,0,0
1639846172-152,http://www.ndwt.org/ndwt/explore/site.asp?site=59,Lake Bryan,Snake,72,S -WA,46.585197,-118.003812,Year round,Yes,Clarkston Natural Resources Office,(505)-751-0240,http://tinyurl.com/2b95uu,1,0,0,1,0,1,0,0,1
1639846189-160,http://www.ndwt.org/ndwt/explore/site.asp?site=51,Lake Bryan,Snake,105.5,N-WA,46.684067,-117.450317,Year round,Yes,Clarkston Natural Resources Office,509-397-3208,http://tinyurl.com/22w5th,1,1,1,0,1,1,1,1,1
1639845937-46,http://www.ndwt.org/ndwt/explore/site.asp?site=165,Lake Bonneville,Columbia,167,WA,45.72275,-121.56,year round,None,US Fish and Wildlife Service,(509) 493-1730,http://tinyurl.com/2g2uev,1,0,0,1,0,0,0,0,1
1639846042-93,http://www.ndwt.org/ndwt/explore/site.asp?site=118,Lake Umatilla,Columbia,283,S-OR,45.901,-119.49,year round,None,The Dalles Natural Resource Management Office,503-922-3744,http://tinyurl.com/4cuffk,1,0,0,1,0,1,1,1,1
1639846141-138,http://www.ndwt.org/ndwt/explore/site.asp?site=73,Lake Sacajawea,Snake,41,S -WA,46.556791,-118.541413,Year round,Yes,Ice Harbor Lock and Dam,509-547-2048,http://tinyurl.com/yt2cfs,1,0,0,1,0,1,1,0,0
1639846213-171,http://www.ndwt.org/ndwt/explore/site.asp?site=40,Lower Granite Lake,Snake,138,S -WA,46.4202,-117.0696,Year round,RV only,Hells Canyon Marina,509-758-6963,http://www.hellscanyon.net/,1,0,1,0,1,1,0,1,1
1639845865-16,http://www.ndwt.org/ndwt/explore/site.asp?site=198,,,,,,,,,,,,0,0,0,0,0,0,0,0,0
1639846227-177,http://www.ndwt.org/ndwt/explore/site.asp?site=34,Lower Granite Lake,Snake,143,E - ID,46.3696,-117.05375,Year round,undeveloped,Hells Gate State Park,(208)-799-5015,,1,0,1,1,0,1,1,0,1
1639846147-141,http://www.ndwt.org/ndwt/explore/site.asp?site=70,Lake West,Snake,41.7,,,,,,,,,0,0,0,0,0,0,0,0,0
1639845985-67,http://www.ndwt.org/ndwt/explore/site.asp?site=144,Lake Celilo,Columbia,199,WA,45.663,-121.04,,,The Dalles Natural Resource Management Office,,,1,0,0,1,0,1,1,0,0
1639846255-187,http://www.ndwt.org/ndwt/explore/site.asp?site=22,,Clearwater,,ID,,,Summer through Fall Months,both,Dworshak Dam and Reservoir,208-476-1255,,1,0,0,1,0,0,0,0,0
1639845915-36,http://www.ndwt.org/ndwt/explore/site.asp?site=175,Bonneville Dam,Columbia,147,WA,45.635167,-121.935017,year round,undeveloped,US Army Corps of Engineers,541-374-4556,,1,0,0,1,1,1,0,0,1
1639846198-164,http://www.ndwt.org/ndwt/explore/site.asp?site=47,Lower Granite Lake,Snake,108,N - WA,46.634917,-117.417067,Year round,Yes,Clarkston Natural Resources Office,(509) 751-0240,http://tinyurl.com/24x296,1,0,0,0,0,1,0,0,1
1639845854-11,http://www.ndwt.org/ndwt/explore/site.asp?site=203,Lake Wallula,Columbia,315,,46.057807,-118.912411,year round,Tent and RV,Ice Harbor Lock & Dam,,http://tinyurl.com/3zt3ul,1,0,0,0,0,1,1,0,0
1639846185-158,http://www.ndwt.org/ndwt/explore/site.asp?site=53,Lake Bryan,Snake,102,S -WA,46.680324,-117.501255,Year round,undeveloped,Clarkston Natural Resources Office,(505)-751-0204,,1,0,0,1,0,0,0,0,0
1639846180-156,http://www.ndwt.org/ndwt/explore/site.asp?site=55,Lake Bryan,Snake,88,S -WA,46.682524,-117.749768,Year round,Yes,Clarkston Natural Resources Office,(509) 751-0240,http://tinyurl.com/2ho48x,1,0,0,0,0,1,0,0,0
1639845969-60,http://www.ndwt.org/ndwt/explore/site.asp?site=151,Lake Bonneville,Columbia,190,OR,45.600517,-121.16875,Open May 25 - November 1.,None,Northern Wasco County Parks and Recreation,541-296-9533,http://tinyurl.com/35pvtm,1,0,0,1,1,1,0,0,1
1639846105-122,http://www.ndwt.org/ndwt/explore/site.asp?site=89,Lake Wallula,Snake,2,WA,46.214683,-119.0189,,,,,,0,0,0,0,0,0,0,0,0
1639845991-70,http://www.ndwt.org/ndwt/explore/site.asp?site=141,Lake Celilo,Columbia,209,WA,45.676,-120.83,,,,,,0,0,0,0,0,0,0,0,0
1639845966-59,http://www.ndwt.org/ndwt/explore/site.asp?site=152,Lake Bonneville,Columbia,181,OR,45.675533,-121.26455,year round,none,Oregon State Parks,503-695-2261 x222,http://www.oregonstateparks.org/park_161.php,1,0,0,1,0,0,0,0,1
1639846301-208,http://www.ndwt.org/ndwt/explore/site.asp?site=1,Clearwater,Clearwater,40,South,46.50514,-116.34823,year round,None,Nez Perce National Historic Park,,,1,0,0,1,0,0,0,0,1
1639846264-191,http://www.ndwt.org/ndwt/explore/site.asp?site=18,,Clearwater,,ID,46.476442,-116.766443,,,CMC/BLM,,,0,0,0,0,0,0,0,0,0
1639845942-48,http://www.ndwt.org/ndwt/explore/site.asp?site=163,Lake Bonneville,Columbia,169,OR,45.711867,-121.502833,year round,None,Port of Hood River,541-386-1645,,0,0,1,1,0,1,0,0,1
1639846152-143,http://www.ndwt.org/ndwt/explore/site.asp?site=68,Lake West,Snake,51,S -WA,46.586974,-118.36984,Year round,Yes,Ice Harbor Lock and Dam,509-547-2048,http://tinyurl.com/2gymwe,1,0,0,1,0,1,1,0,0
1639845975-63,http://www.ndwt.org/ndwt/explore/site.asp?site=148,Lake Bonneville,Columbia,191.9,,,,,,,,,0,0,0,0,0,0,0,0,0
1639846268-193,http://www.ndwt.org/ndwt/explore/site.asp?site=16,,Clearwater,,ID,,,,,Idah Transportation Dept.,(208)-799-5090,,0,0,1,0,0,0,0,0,0
1639846033-89,http://www.ndwt.org/ndwt/explore/site.asp?site=122,Lake Umatilla,Columbia,269,OR,45.846,-119.7,March 15 through December 15,Yes,The Dalles Natural Resource Management Office,503-481-7217,http://tinyurl.com/4t4onc,1,0,0,1,0,1,1,0,1
1639846085-113,http://www.ndwt.org/ndwt/explore/site.asp?site=98,Lake Wallula,Columbia,329,WA,46.21702,-119.115994,,,Port of Kennewick,509.586.1186,http://www.portofkennewick.org/,0,0,0,0,0,1,1,0,0
1639846176-154,http://www.ndwt.org/ndwt/explore/site.asp?site=57,Lake Bryan,Snake,83,S -WA,46.616049,-117.796673,,,Port of Garfield,(509) 843-3740,http://www.portofgarfield.com/,0,0,0,0,0,1,1,0,0
1639846044-94,http://www.ndwt.org/ndwt/explore/site.asp?site=117,Lake Umatilla,Columbia,289,WA,45.932,-119.35,"Campground - April 1 to October 31, Day-Use - May to September",Yes,The Dalles Natural Resource Management Office,(509) 783-1270,http://tinyurl.com/ynthwd,1,1,0,0,0,1,1,0,1
1639846205-167,http://www.ndwt.org/ndwt/explore/site.asp?site=44,Lower Granite Lake,Snake,119,N -WA,46.5557,-117.269717,Year round,Yes,Clarkston Natural Resources Office,(509) 751-0240,http://tinyurl.com/23xfzh,1,0,0,1,0,1,0,0,1
1639845944-49,http://www.ndwt.org/ndwt/explore/site.asp?site=162,Lake Bonneville,Columbia,169,WA,45.722833,-121.498017,year round,undeveloped,Privately Owned,TBD,,1,0,0,1,0,0,0,0,0
1639846009-78,http://www.ndwt.org/ndwt/explore/site.asp?site=133,Lake Umatilla,Columbia,216.1,,,,,,,,,0,0,0,0,0,0,0,0,0
1639846000-74,http://www.ndwt.org/ndwt/explore/site.asp?site=137,Lake Celilo,Columbia,214,S-OR,45.711,-120.71,,Yes,The Dalles Natural Resource Management Office,,,1,0,0,0,0,1,0,0,0
1639846037-91,http://www.ndwt.org/ndwt/explore/site.asp?site=120,Lake Umatilla,Columbia,279,OR,45.91,-119.5,,,,,,0,0,0,0,0,0,0,0,0
1639846243-182,http://www.ndwt.org/ndwt/explore/site.asp?site=27,,Clearwater,,ID,,,,,CMC/BLM,,,0,0,0,0,0,0,0,0,0
1639846187-159,http://www.ndwt.org/ndwt/explore/site.asp?site=52,Lake Bryan,Snake,103,S -WA,46.691417,-117.469283,Year round,Yes,Clarkston Natural Resources Office,(509) 751-0240,http://tinyurl.com/yrdgwu,1,1,1,1,0,1,1,1,0
1639846061-102,http://www.ndwt.org/ndwt/explore/site.asp?site=109,Lake Wallula,Columbia,298,S-OR,45.917642,-119.174578,Year Round,None,Oregon State Parks,(541)-567-5032,http://tinyurl.com/yopbvr,1,0,0,1,0,1,1,0,1
1639846211-170,http://www.ndwt.org/ndwt/explore/site.asp?site=41,Lower Granite Lake,Snake,132,S -WA,46.420567,-117.1913,Year round,undeveloped,Clarkston Resources Office,509-751-0256 or 509-751-0257,,0,0,0,1,0,0,0,0,0
1639846031-88,http://www.ndwt.org/ndwt/explore/site.asp?site=123,Lake Umatilla,Columbia,269,OR,45.846,-119.65,,,,,,1,0,0,0,1,1,1,0,0
1639846270-194,http://www.ndwt.org/ndwt/explore/site.asp?site=15,,Clearwater,,ID,46.401712,-117.001324,,,,,,0,0,0,0,0,0,1,0,0
1639846114-126,http://www.ndwt.org/ndwt/explore/site.asp?site=85,,Snake,9.7,both - WA,46.251092,-118.881411,"Visitor Center is open from April 1 through October 31, 2005",undeveloped,Ice Harbor Lock and Dam,,,1,0,0,1,0,1,1,0,1
1639846150-142,http://www.ndwt.org/ndwt/explore/site.asp?site=69,Lake West,Snake,42,N -WA,46.569896,-118.530498,Year round,Yes,Ice Harbor Lock and Dam,509-547-2048,http://tinyurl.com/2d278n,1,0,0,1,0,1,1,0,0
1639846024-85,http://www.ndwt.org/ndwt/explore/site.asp?site=126,Lake Umatilla,Columbia,256,OR,45.806,-119.8,,Yes,The Dalles Natural Resources Management Office,541-298-7527,,1,0,0,0,0,1,1,0,0
1639845876-21,http://www.ndwt.org/ndwt/explore/site.asp?site=193,Clearwater,Clearwater,,,,,,Unknown,BLM/CMC,,,1,0,0,0,0,1,0,0,0
1639846013-80,http://www.ndwt.org/ndwt/explore/site.asp?site=131,Lake Umatilla,Columbia,230,WA,45.721,-120.46,,,,,,0,0,0,0,0,0,0,0,0
1639846143-139,http://www.ndwt.org/ndwt/explore/site.asp?site=72,Lake Sacajawea,Snake,41.5,,,,,,,,,0,0,0,0,0,0,0,0,0
1639846261-190,http://www.ndwt.org/ndwt/explore/site.asp?site=19,,Clearwater,,ID,,,,,,,,0,0,0,0,0,0,0,0,0
1639845878-22,http://www.ndwt.org/ndwt/explore/site.asp?site=192,,Clearwater,,,,,,,CMC/BLM,799-5090,,0,0,0,0,0,0,0,0,0
1639845867-17,http://www.ndwt.org/ndwt/explore/site.asp?site=197,,,,,,,,,Skamania County,,,0,0,0,0,0,0,0,0,0
1639846092-116,http://www.ndwt.org/ndwt/explore/site.asp?site=95,Lake Wallula,Columbia,334,WA,46.245222,-119.209361,Year round,None,Franklin County Parks and Recreation,509-545-3541,http://tinyurl.com/23hgtk,1,0,0,1,1,1,1,0,1
1639846178-155,http://www.ndwt.org/ndwt/explore/site.asp?site=56,Lake Bryan,Snake,83,N -WA,46.630639,-117.812771,Opening and closing dates will depend upon use and weather,Yes,Clarkston Natural Resources Office,509-549-3551,http://tinyurl.com/2ho2vb,1,0,1,1,1,1,1,0,1
1639846266-192,http://www.ndwt.org/ndwt/explore/site.asp?site=17,,Clearwater,,ID,46.452211,-116.806586,,,,,,0,0,0,0,0,0,0,0,0
1639845982-66,http://www.ndwt.org/ndwt/explore/site.asp?site=145,Lake Celilo,Columbia,195,N-WA,45.646,-121.1,Closed Oct 31-March 31,Yes,Washington State Parks,(509) 767-1159,http://tinyurl.com/ynppf6,1,0,0,1,0,1,0,0,0
1639846191-161,http://www.ndwt.org/ndwt/explore/site.asp?site=50,Lake Bryan,Snake,107.2,,46.6588,-117.417067,,,,,,0,0,0,0,0,0,0,0,0
1639845964-58,http://www.ndwt.org/ndwt/explore/site.asp?site=153,Lake Bonneville,Columbia,175,OR,45.6846,-121.3949,year round,None,City of Mosier,(541-400-0354),http://windsurf.gorge.net/cgwa/sites/mosier.html,0,0,0,1,0,0,1,0,0
1639845913-35,http://www.ndwt.org/ndwt/explore/site.asp?site=176,Bonneville Dam,Columbia,147,OR,45.6316,-121.961917,year round,undeveloped,US Army Corps of Engineers,541-374-4556,,1,0,0,1,0,0,0,0,1
1639846194-162,http://www.ndwt.org/ndwt/explore/site.asp?site=49,,Snake,107.3,Both - ID,46.661096,-117.429459,"Dam Crossing Hours of operation are:
CLOSED UNTIL FURTHER NOTICE.",undeveloped,Clarkston Resources Office,509-843-1493 ext. 262,,1,0,0,1,0,0,0,0,1
1639845980-65,http://www.ndwt.org/ndwt/explore/site.asp?site=146,Lake Celilo,Columbia,192.1,WA,,,,,,,,0,0,0,0,0,0,0,0,0
1639846200-165,http://www.ndwt.org/ndwt/explore/site.asp?site=46,Lower Granite Lake,Snake,110.5,N - WA,46.63435,-117.373983,Year round. Water available April 15 to October 15.,Yes,Clarkston Natural Resources Office,(509) 334-3774.,http://tinyurl.com/yrok4b,1,1,0,0,1,0,1,0,1
1639845898-29,http://www.ndwt.org/ndwt/explore/site.asp?site=183,Lake Bryan,Snake,101,South,46.674833,-117.5012,,Tent only,ACOE Clarkston Natural Resources Office,(505)-751-0240,http://tinyurl.com/4m685r,1,0,0,0,0,0,1,0,0
1639845836-3,http://www.ndwt.org/ndwt/explore/site.asp?site=211,Lake Wallula,Columbia,339,West,46.294216,-119.268672,year round,None,City of Richland Parks and Recreation Department,509-942-7529,http://tinyurl.com/4aqwxw,1,1,0,1,0,0,1,0,1
1639845922-39,http://www.ndwt.org/ndwt/explore/site.asp?site=172,Lake Bonneville,Columbia,150,OR,45.667517,-121.896867,year round,undeveloped,Port of Cascade Locks,541-374-8427,,1,0,0,1,0,1,0,0,1
1639845841-5,http://www.ndwt.org/ndwt/explore/site.asp?site=209,,Clearwater,4,North,46.43003,116.98374,,None,,,,1,0,0,1,0,1,1,0,0
1639845850-9,http://www.ndwt.org/ndwt/explore/site.asp?site=205,,Clearwater,30,North,46.50653,116.54964,,,Idaho fish and game,,,1,0,0,0,0,0,0,0,0
1639846130-133,http://www.ndwt.org/ndwt/explore/site.asp?site=78,Lake Sacajawea,Snake,19,N - WA,46.331947,-118.766401,Year round,Yes,Ice Harbor Lock and Dam,(509)-547-2048,http://tinyurl.com/yssuww,0,0,0,0,0,0,1,0,0
1639845872-19,http://www.ndwt.org/ndwt/explore/site.asp?site=195,,,156,,,,,,,,,1,0,0,0,0,1,0,0,0
1639845883-24,http://www.ndwt.org/ndwt/explore/site.asp?site=190,Clearwater,Clearwater,16,,46.47953,116.75301,,Yes,Idaho Fish and Game,,http://tinyurl.com/28x8kh,1,0,0,0,0,1,1,0,1
1639845907-33,http://www.ndwt.org/ndwt/explore/site.asp?site=179,Lake Bonneville,Columbia,169,South,,,year round,,Port of Hood River,(541)-386-1645,,1,0,0,1,0,0,0,0,0
1639845935-45,http://www.ndwt.org/ndwt/explore/site.asp?site=166,Lake Bonneville,Columbia,162,WA,45.7103,-121.639883,year round,None,Skamania Parks and Recreation,509-427-3925,http://tinyurl.com/yuws4w,1,0,0,1,0,1,0,0,0
1639846231-179,http://www.ndwt.org/ndwt/explore/site.asp?site=32,,Clearwater,,ID,,,,,,,,0,0,0,0,0,0,0,0,0
1639846006-77,http://www.ndwt.org/ndwt/explore/site.asp?site=134,Lake Umatilla,Columbia,216,WA,45.72,-120.69,,,,,,0,0,0,0,0,0,0,0,0
1639845918-37,http://www.ndwt.org/ndwt/explore/site.asp?site=174,Lake Bonneville,Columbia,147.1,,,,,,,,,0,0,0,0,0,0,0,0,0
1639845926-41,http://www.ndwt.org/ndwt/explore/site.asp?site=170,Lake Bonneville,Columbia,150,WA,45.691467,-121.8834,year round,None,Port of Skamania,509-427-5650,http://www.portofskamania.org/bobsBeach.htm,1,0,0,1,0,0,0,0,1
1639845852-10,http://www.ndwt.org/ndwt/explore/site.asp?site=204,,Columbia,168,,,,,,Hood River Valley P+R,(541)386-5720,,1,0,0,0,1,1,0,0,0
1639846167-150,http://www.ndwt.org/ndwt/explore/site.asp?site=61,Lake Bryan,Snake,70.3,both -WA,46.582126,-118.027958,Visitor Center is open year round.,undeveloped,Clarkston Natural Resources Office,(505)-751-0240,,1,0,0,1,0,0,0,0,1
1639846286-201,http://www.ndwt.org/ndwt/explore/site.asp?site=8,Clearwater,Clearwater,24,ID,,,,,CMC/BLM,799-5090,,0,0,0,0,0,0,0,0,0
1639846081-111,http://www.ndwt.org/ndwt/explore/site.asp?site=100,Lake Wallula,Columbia,328,WA,46.217859,-119.087627,year round,None,Ice Harbor Lock and Dam,(509)-547-2048,http://tinyurl.com/2zswx7,1,0,0,1,0,1,1,1,0
1639846066-104,http://www.ndwt.org/ndwt/explore/site.asp?site=107,Lake Wallula,Columbia,306,OR,,,year round,undeveloped,McNary National Wildlife Refuge,,,0,0,0,1,0,0,0,0,0
1639846216-172,http://www.ndwt.org/ndwt/explore/site.asp?site=39,Lower Granite Lake,Snake,139,E - ID,46.421333,-117.03375,Year round,5,Clarkston Resources Office,(505)-751-0240,,1,0,0,1,0,0,0,0,1
1639846110-124,http://www.ndwt.org/ndwt/explore/site.asp?site=87,,Snake,9.5,S -WA,,,"Daily, April 1 - October 31, 2005",,Ice Harbor Lock and Dam,,,1,0,0,0,0,0,0,0,1
1639846132-134,http://www.ndwt.org/ndwt/explore/site.asp?site=77,Lake Sacajawea,Snake,23,N - WA,46.366983,-118.722769,Year round,undeveloped,Ice Harbor Lock and Dam,509-547-2048,,0,0,0,0,0,0,0,0,0
1639845989-69,http://www.ndwt.org/ndwt/explore/site.asp?site=142,Lake Celilo,Columbia,204,S- OR,45.634,-120.91,year round,None,Oregon State Parks,,http://www.oregonstateparks.org/park_35.php,1,0,0,1,0,1,0,0,0
1639846119-128,http://www.ndwt.org/ndwt/explore/site.asp?site=83,Lake Sacajawea,Snake,10,N-WA,46.252911,-118.876952,,,,,,0,0,0,0,0,0,0,0,0
1639845971-61,http://www.ndwt.org/ndwt/explore/site.asp?site=150,Lake Bonneville,Columbia,190,OR,45.626133,-121.197767,year round,None,Port of The Dalles,541-298-4148,http://www.portofthedalles.com/m_info.cfm,1,0,1,1,0,1,0,1,1
1639846220-174,http://www.ndwt.org/ndwt/explore/site.asp?site=37,Lower Granite Lake,Snake,141,E - ID,46.40235,-117.034567,Year round,None,Clarkston Resources Office,,http://tinyurl.com/4a5qk7,1,0,0,1,0,1,0,0,1
1639845902-31,http://www.ndwt.org/ndwt/explore/site.asp?site=181,Lake Wallula,Columbia,300,South,45.921184,-119.301052,,Tent and RV,McNary Dam,541-922-2268,http://tinyurl.com/4nxbdl,1,0,0,0,0,0,1,0,0
1639846293-204,http://www.ndwt.org/ndwt/explore/site.asp?site=5,Clearwater,Clearwater,30,ID,,,,,CMC,,,0,0,0,1,0,0,0,0,0
1639846128-132,http://www.ndwt.org/ndwt/explore/site.asp?site=79,Lake Sacajawea,Snake,18,S -WA,46.32403,-118.767,"May 1 to September 30, 2005",Yes,Ice Harbor Lock and Dam,Contact Ice Harbor Dam (509-547-2048),http://tinyurl.com/28wjn3,1,1,0,1,1,1,1,0,1
1639845839-4,http://www.ndwt.org/ndwt/explore/site.asp?site=210,Clearwater,Clearwater,10,,46.44683,116.86049,,Yes,Idaho Fish and Game,,http://tinyurl.com/yrswl2,1,0,0,1,0,1,1,0,1
1639845843-6,http://www.ndwt.org/ndwt/explore/site.asp?site=208,Clearwater,Clearwater,10,North,46.44395,116.84751,year round,None,Idaho Fish and Game,(208) 334-3700,,1,0,0,1,0,0,1,0,0
1639846288-202,http://www.ndwt.org/ndwt/explore/site.asp?site=7,Clearwater,Clearwater,28,ID,46.50956,116.56336,year round,Yes,Idaho Department of Transportation,,http://www.nps.gov/archive/nepe/site19.htm,1,0,0,1,0,1,0,0,1
1639846284-200,http://www.ndwt.org/ndwt/explore/site.asp?site=9,Clearwater,Clearwater,17,ID,,,,,Idaho Transportation Dept.,799-5090,,0,0,0,0,0,0,0,0,0
1639845891-27,http://www.ndwt.org/ndwt/explore/site.asp?site=186,Clearwater,Clearwater,7,North,46 26.104,-116 54.101,,,Idaho Fish and Game,,http://tinyurl.com/28x8kh,0,0,0,1,0,1,1,0,0
1639846020-83,http://www.ndwt.org/ndwt/explore/site.asp?site=128,Lake Umatilla,Columbia,243,OR,45.72,-120.2,,Yes,Port of Arlington,(541) 454-2868,http://tinyurl.com/2y3575,1,0,0,1,0,1,0,0,1
1639845889-26,http://www.ndwt.org/ndwt/explore/site.asp?site=187,Lake Umatilla,Columbia,300,South,,,,,,,,0,0,0,0,0,0,0,0,0
1639846048-96,http://www.ndwt.org/ndwt/explore/site.asp?site=115,Lake Umatilla,Columbia,291,OR,45.925,-119.33,year round,Yes,Port of Umatilla,(541) 922-3939,http://tinyurl.com/2zs4dz,1,0,0,1,0,1,1,0,0
1639846277-197,http://www.ndwt.org/ndwt/explore/site.asp?site=12,Lower Granite Lake,Clearwater,3,ID,46.430046,-116.983513,,,,,,0,0,0,0,0,1,1,0,0
1639845869-18,http://www.ndwt.org/ndwt/explore/site.asp?site=196,Lake Bonneville,Columbia,184,,45.67917,-121.238766,year round,None,Washington State Parks,(509)767-1159,http://tinyurl.com/3odc8s,1,0,0,1,0,0,1,0,0
1639846123-130,http://www.ndwt.org/ndwt/explore/site.asp?site=81,Lake Sacajawea,Snake,13,N - WA,46.279252,-118.833809,May 1 through September 30,None,Ice Harbor Lock and Dam,509-547-2048,http://tinyurl.com/2zavpy,1,0,0,1,1,1,0,0,0
1639845995-72,http://www.ndwt.org/ndwt/explore/site.asp?site=139,Lake Celilo,Columbia,210,WA,45.683,-120.83,year round,Yes,"Washington State Parks, Maryhill State Park",(509)-773-5007,http://tinyurl.com/23nmkd,1,0,0,1,1,1,0,0,0
1639846063-103,http://www.ndwt.org/ndwt/explore/site.asp?site=108,Lake Wallula,Columbia,299,OR,45.920055,-119.165082,Gate closed from dusk to dawn between Memorial Day and Labor Day Weekend.,None,McNary Lock and Dam,(541)-922-2268,http://tinyurl.com/2ygpml,1,0,0,1,0,0,0,0,0
1639846096-118,http://www.ndwt.org/ndwt/explore/site.asp?site=93,Lake Wallula,Columbia,335,WA,46.239865,-119.220216,Year round,developed,,,,0,0,0,0,0,0,0,0,0
1639846158-146,http://www.ndwt.org/ndwt/explore/site.asp?site=65,Lake West,Snake,62.2,,46.569759,-118.192998,,,,,,0,0,0,0,0,0,0,0,0
1639846108-123,http://www.ndwt.org/ndwt/explore/site.asp?site=88,Lake Wallula,Snake,2.5,S - WA,46.211833,-119.0131,April 1 - September 30,Yes,Ice Harbor Lock and Dam,Contact Ice Harbor at 509-547-2048,http://tinyurl.com/yuuqq6,1,0,0,1,1,1,1,0,1
1639846004-76,http://www.ndwt.org/ndwt/explore/site.asp?site=135,,Columbia,216,CURRENTLY CLOSED TO VISITORS,,,,,,,,0,0,0,0,0,0,0,0,0
1639846281-199,http://www.ndwt.org/ndwt/explore/site.asp?site=10,Clearwater,Clearwater,15,N-ID,,,Campground open from late April to late November,undeveloped,Dworshak Dam and Reservoir,,,1,0,1,1,1,1,1,0,1
1639846236-181,http://www.ndwt.org/ndwt/explore/site.asp?site=30,Clearwater,Clearwater,38,South,46.49924,116.37216,,None,Idaho Fish & Game,,,0,0,0,0,0,0,1,0,0
1639846250-185,http://www.ndwt.org/ndwt/explore/site.asp?site=24,Clearwater,Clearwater,8,ID,46.44472,-116.88727,,None,Idaho Fish & Game,,,1,0,0,0,0,0,1,0,0
1639846077-109,http://www.ndwt.org/ndwt/explore/site.asp?site=102,Lake Wallula,Columbia,319,WA,46.148646,-118.939945,Gates closed from Dusk to Dawn between Memorial Day and Labor Day weekend.,None,US Fish and Wildlife Service,(509)-371-9212,http://tinyurl.com/yptolj,1,1,0,1,1,0,1,0,0
1639846273-195,http://www.ndwt.org/ndwt/explore/site.asp?site=14,,Clearwater,1,ID,,,,,,,,0,0,0,0,0,0,0,0,0
1639846299-207,http://www.ndwt.org/ndwt/explore/site.asp?site=2,Clearwater,Clearwater,39,South,46.50304,-116.334937,year round,Yes,BLM Cottonwood Field Office,(208) 962-3245,http://tinyurl.com/ypxb7b,1,0,0,0,0,1,0,0,0